CCSDS_OMM_VERS = 2.0
CREATION_DATE  = 
ORIGINATOR     = 

OBJECT_NAME    = SL-3 R/B
OBJECT_ID      = 1988-032B
CENTER_NAME    = EARTH
REF_FRAME      = TEME
TIME_SYSTEM    = UTC
MEAN_ELEMENT_THEORY = SGP/SGP4

EPOCH          = 2026-03-08T14:43:13.375200
MEAN_MOTION    = 15.19896943
ECCENTRICITY   = .00243015
INCLINATION    = 97.5197
RA_OF_ASC_NODE = 50.8680
ARG_OF_PERICENTER = 235.4884
MEAN_ANOMALY   = 124.4056

EPHEMERIS_TYPE = 0
CLASSIFICATION_TYPE = U
NORAD_CAT_ID   = 19046
ELEMENT_SET_NO = 999
REV_AT_EPOCH   = 5194
BSTAR          = .37381606E-3
MEAN_MOTION_DOT = .8021E-4
MEAN_MOTION_DDOT = 0

CCSDS_OMM_VERS = 2.0
CREATION_DATE  = 
ORIGINATOR     = 

OBJECT_NAME    = SL-16 R/B
OBJECT_ID      = 1988-039B
CENTER_NAME    = EARTH
REF_FRAME      = TEME
TIME_SYSTEM    = UTC
MEAN_ELEMENT_THEORY = SGP/SGP4

EPOCH          = 2026-03-08T10:19:22.957248
MEAN_MOTION    = 14.19615461
ECCENTRICITY   = .00227151
INCLINATION    = 71.0133
RA_OF_ASC_NODE = 71.2110
ARG_OF_PERICENTER = 336.1659
MEAN_ANOMALY   = 23.8412

EPHEMERIS_TYPE = 0
CLASSIFICATION_TYPE = U
NORAD_CAT_ID   = 19120
ELEMENT_SET_NO = 999
REV_AT_EPOCH   = 95820
BSTAR          = -.41373855E-4
MEAN_MOTION_DOT = -.136E-5
MEAN_MOTION_DDOT = 0

CCSDS_OMM_VERS = 2.0
CREATION_DATE  = 
ORIGINATOR     = 

OBJECT_NAME    = COSMOS 1953
OBJECT_ID      = 1988-050A
CENTER_NAME    = EARTH
REF_FRAME      = TEME
TIME_SYSTEM    = UTC
MEAN_ELEMENT_THEORY = SGP/SGP4

EPOCH          = 2026-03-08T07:35:30.992352
MEAN_MOTION    = 15.28502296
ECCENTRICITY   = .00124347
INCLINATION    = 82.5102
RA_OF_ASC_NODE = 159.6275
ARG_OF_PERICENTER = 126.9953
MEAN_ANOMALY   = 233.2427

EPHEMERIS_TYPE = 0
CLASSIFICATION_TYPE = U
NORAD_CAT_ID   = 19210
ELEMENT_SET_NO = 999
REV_AT_EPOCH   = 3757
BSTAR          = .49855494E-3
MEAN_MOTION_DOT = .13896E-3
MEAN_MOTION_DDOT = 0

CCSDS_OMM_VERS = 2.0
CREATION_DATE  = 
ORIGINATOR     = 

OBJECT_NAME    = SL-8 R/B
OBJECT_ID      = 1988-053B
CENTER_NAME    = EARTH
REF_FRAME      = TEME
TIME_SYSTEM    = UTC
MEAN_ELEMENT_THEORY = SGP/SGP4

EPOCH          = 2026-03-08T14:59:00.193056
MEAN_MOTION    = 14.38915235
ECCENTRICITY   = .00214013
INCLINATION    = 74.0462
RA_OF_ASC_NODE = 114.4304
ARG_OF_PERICENTER = 293.8475
MEAN_ANOMALY   = 182.5791

EPHEMERIS_TYPE = 0
CLASSIFICATION_TYPE = U
NORAD_CAT_ID   = 19257
ELEMENT_SET_NO = 999
REV_AT_EPOCH   = 97644
BSTAR          = .11922442E-3
MEAN_MOTION_DOT = .342E-5
MEAN_MOTION_DDOT = 0

CCSDS_OMM_VERS = 2.0
CREATION_DATE  = 
ORIGINATOR     = 

OBJECT_NAME    = COSMOS 1975
OBJECT_ID      = 1988-093A
CENTER_NAME    = EARTH
REF_FRAME      = TEME
TIME_SYSTEM    = UTC
MEAN_ELEMENT_THEORY = SGP/SGP4

EPOCH          = 2026-03-08T14:40:40.554336
MEAN_MOTION    = 15.28054283
ECCENTRICITY   = .00120381
INCLINATION    = 82.5181
RA_OF_ASC_NODE = 118.7674
ARG_OF_PERICENTER = 167.1429
MEAN_ANOMALY   = 193.0119

EPHEMERIS_TYPE = 0
CLASSIFICATION_TYPE = U
NORAD_CAT_ID   = 19573
ELEMENT_SET_NO = 999
REV_AT_EPOCH   = 1924
BSTAR          = .38331138E-3
MEAN_MOTION_DOT = .10542E-3
MEAN_MOTION_DDOT = 0

CCSDS_OMM_VERS = 2.0
CREATION_DATE  = 
ORIGINATOR     = 

OBJECT_NAME    = SL-14 R/B
OBJECT_ID      = 1988-093B
CENTER_NAME    = EARTH
REF_FRAME      = TEME
TIME_SYSTEM    = UTC
MEAN_ELEMENT_THEORY = SGP/SGP4

EPOCH          = 2026-03-08T11:03:05.624064
MEAN_MOTION    = 14.85655229
ECCENTRICITY   = .00218435
INCLINATION    = 82.5304
RA_OF_ASC_NODE = 43.1975
ARG_OF_PERICENTER = 45.3232
MEAN_ANOMALY   = 72.2821

EPHEMERIS_TYPE = 0
CLASSIFICATION_TYPE = U
NORAD_CAT_ID   = 19574
ELEMENT_SET_NO = 999
REV_AT_EPOCH   = 83
BSTAR          = .94863146E-4
MEAN_MOTION_DOT = .849E-5
MEAN_MOTION_DDOT = 0

CCSDS_OMM_VERS = 2.0
CREATION_DATE  = 
ORIGINATOR     = 

OBJECT_NAME    = SL-16 R/B
OBJECT_ID      = 1988-102B
CENTER_NAME    = EARTH
REF_FRAME      = TEME
TIME_SYSTEM    = UTC
MEAN_ELEMENT_THEORY = SGP/SGP4

EPOCH          = 2026-03-08T15:12:14.518368
MEAN_MOTION    = 14.16151420
ECCENTRICITY   = .00138888
INCLINATION    = 71.0000
RA_OF_ASC_NODE = 153.7196
ARG_OF_PERICENTER = 3.3231
MEAN_ANOMALY   = 356.7981

EPHEMERIS_TYPE = 0
CLASSIFICATION_TYPE = U
NORAD_CAT_ID   = 19650
ELEMENT_SET_NO = 999
REV_AT_EPOCH   = 92674
BSTAR          = .17680593E-3
MEAN_MOTION_DOT = .302E-5
MEAN_MOTION_DDOT = 0

CCSDS_OMM_VERS = 2.0
CREATION_DATE  = 
ORIGINATOR     = 

OBJECT_NAME    = INTERCOSMOS 24
OBJECT_ID      = 1989-080A
CENTER_NAME    = EARTH
REF_FRAME      = TEME
TIME_SYSTEM    = UTC
MEAN_ELEMENT_THEORY = SGP/SGP4

EPOCH          = 2026-03-08T12:45:36.617184
MEAN_MOTION    = 12.59556211
ECCENTRICITY   = .11867125
INCLINATION    = 82.6028
RA_OF_ASC_NODE = 105.1585
ARG_OF_PERICENTER = 295.5108
MEAN_ANOMALY   = 52.7949

EPHEMERIS_TYPE = 0
CLASSIFICATION_TYPE = U
NORAD_CAT_ID   = 20261
ELEMENT_SET_NO = 999
REV_AT_EPOCH   = 66665
BSTAR          = .28986063E-3
MEAN_MOTION_DOT = .973E-5
MEAN_MOTION_DDOT = 0

CCSDS_OMM_VERS = 2.0
CREATION_DATE  = 
ORIGINATOR     = 

OBJECT_NAME    = SL-14 R/B
OBJECT_ID      = 1989-080C
CENTER_NAME    = EARTH
REF_FRAME      = TEME
TIME_SYSTEM    = UTC
MEAN_ELEMENT_THEORY = SGP/SGP4

EPOCH          = 2026-03-08T14:17:38.943168
MEAN_MOTION    = 12.50492282
ECCENTRICITY   = .12305346
INCLINATION    = 82.5974
RA_OF_ASC_NODE = 173.8883
ARG_OF_PERICENTER = 187.2494
MEAN_ANOMALY   = 170.9255

EPHEMERIS_TYPE = 0
CLASSIFICATION_TYPE = U
NORAD_CAT_ID   = 20262
ELEMENT_SET_NO = 999
REV_AT_EPOCH   = 66001
BSTAR          = .24579577E-3
MEAN_MOTION_DOT = .829E-5
MEAN_MOTION_DDOT = 0

CCSDS_OMM_VERS = 2.0
CREATION_DATE  = 
ORIGINATOR     = 

OBJECT_NAME    = DELTA 1 R/B
OBJECT_ID      = 1989-089B
CENTER_NAME    = EARTH
REF_FRAME      = TEME
TIME_SYSTEM    = UTC
MEAN_ELEMENT_THEORY = SGP/SGP4

EPOCH          = 2026-03-08T14:04:07.280832
MEAN_MOTION    = 14.50662106
ECCENTRICITY   = .00704094
INCLINATION    = 97.0706
RA_OF_ASC_NODE = 275.2004
ARG_OF_PERICENTER = 125.4161
MEAN_ANOMALY   = 235.3640

EPHEMERIS_TYPE = 0
CLASSIFICATION_TYPE = U
NORAD_CAT_ID   = 20323
ELEMENT_SET_NO = 999
REV_AT_EPOCH   = 89557
BSTAR          = .12208619E-3
MEAN_MOTION_DOT = .46E-5
MEAN_MOTION_DDOT = 0

CCSDS_OMM_VERS = 2.0
CREATION_DATE  = 
ORIGINATOR     = 

OBJECT_NAME    = ARIANE 40 R/B
OBJECT_ID      = 1990-005H
CENTER_NAME    = EARTH
REF_FRAME      = TEME
TIME_SYSTEM    = UTC
MEAN_ELEMENT_THEORY = SGP/SGP4

EPOCH          = 2026-03-08T03:29:52.263456
MEAN_MOTION    = 14.39869513
ECCENTRICITY   = .00097499
INCLINATION    = 98.3086
RA_OF_ASC_NODE = 127.8532
ARG_OF_PERICENTER = 203.1950
MEAN_ANOMALY   = 156.8800

EPHEMERIS_TYPE = 0
CLASSIFICATION_TYPE = U
NORAD_CAT_ID   = 20443
ELEMENT_SET_NO = 999
REV_AT_EPOCH   = 89258
BSTAR          = .13608374E-3
MEAN_MOTION_DOT = .385E-5
MEAN_MOTION_DDOT = 0

CCSDS_OMM_VERS = 2.0
CREATION_DATE  = 
ORIGINATOR     = 

OBJECT_NAME    = DELTA 2 R/B(1)
OBJECT_ID      = 1990-008B
CENTER_NAME    = EARTH
REF_FRAME      = TEME
TIME_SYSTEM    = UTC
MEAN_ELEMENT_THEORY = SGP/SGP4

EPOCH          = 2026-03-08T09:53:27.707136
MEAN_MOTION    = 15.55817429
ECCENTRICITY   = .00856772
INCLINATION    = 35.6042
RA_OF_ASC_NODE = 183.2376
ARG_OF_PERICENTER = 246.9553
MEAN_ANOMALY   = 112.2130

EPHEMERIS_TYPE = 0
CLASSIFICATION_TYPE = U
NORAD_CAT_ID   = 20453
ELEMENT_SET_NO = 999
REV_AT_EPOCH   = 92593
BSTAR          = .1075869E-2
MEAN_MOTION_DOT = .91801E-3
MEAN_MOTION_DDOT = 0

