SL-3 R/B                
1 19046U 88032B   26067.61334925  .00008021  00000+0  37382-3 0  9991
2 19046  97.5197  50.8680 0024301 235.4884 124.4056 15.19896943 51947
SL-16 R/B               
1 19120U 88039B   26067.43012682 -.00000136  00000+0 -41374-4 0  9992
2 19120  71.0133  71.2110 0022715 336.1659  23.8412 14.19615461958204
COSMOS 1953             
1 19210U 88050A   26067.31633093  .00013896  00000+0  49855-3 0  9993
2 19210  82.5102 159.6275 0012434 126.9953 233.2427 15.28502296 37572
SL-8 R/B                
1 19257U 88053B   26067.62430779  .00000342  00000+0  11922-3 0  9993
2 19257  74.0462 114.4304 0021401 293.8475 182.5791 14.38915235976446
COSMOS 1975             
1 19573U 88093A   26067.61158049  .00010542  00000+0  38331-3 0  9990
2 19573  82.5181 118.7674 0012038 167.1429 193.0119 15.28054283 19248
SL-14 R/B               
1 19574U 88093B   26067.46048176  .00000849  00000+0  94863-4 0  9995
2 19574  82.5304  43.1975 0021843  45.3232  72.2821 14.85655229   836
SL-16 R/B               
1 19650U 88102B   26067.63350137  .00000302  00000+0  17681-3 0  9999
2 19650  71.0000 153.7196 0013888   3.3231 356.7981 14.16151420926745
INTERCOSMOS 24          
1 20261U 89080A   26067.53167381  .00000973  00000+0  28986-3 0  9995
2 20261  82.6028 105.1585 1186712 295.5108  52.7949 12.59556211666652
SL-14 R/B               
1 20262U 89080C   26067.59558962  .00000829  00000+0  24580-3 0  9997
2 20262  82.5974 173.8883 1230534 187.2494 170.9255 12.50492282660017
DELTA 1 R/B             
1 20323U 89089B   26067.58619538  .00000460  00000+0  12209-3 0  9996
2 20323  97.0706 275.2004 0070409 125.4161 235.3640 14.50662106895579
ARIANE 40 R/B           
1 20443U 90005H   26067.14574379  .00000385  00000+0  13608-3 0  9994
2 20443  98.3086 127.8532 0009749 203.1950 156.8800 14.39869513892585
DELTA 2 R/B(1)          
1 20453U 90008B   26067.41212624  .00091801  00000+0  10759-2 0  9996
2 20453  35.6042 183.2376 0085677 246.9553 112.2130 15.55817429925938
